OBJECT_NAME,OBJECT_ID,EPOCH,MEAN_MOTION,ECCENTRICITY,INCLINATION,RA_OF_ASC_NODE,ARG_OF_PERICENTER,MEAN_ANOMALY,EPHEMERIS_TYPE,CLASSIFICATION_TYPE,NORAD_CAT_ID,ELEMENT_SET_NO,REV_AT_EPOCH,BSTAR,MEAN_MOTION_DOT,MEAN_MOTION_DDOT
COSMOS 2058,1990-010A,2026-06-11T21:46:30.052128,15.11976340,.0009898,82.4661,314.5620,19.3672,340.7932,0,U,20465,999,95647,.19495395E-3,.3376E-4,0
SL-14 R/B,1990-010B,2026-06-11T12:03:48.839904,14.83642626,.0019597,82.5016,179.2835,355.3900,4.7131,0,U,20466,999,94239,.37053E-4,.33E-5,0
SL-14 R/B,1990-018B,2026-06-11T22:45:30.535776,14.82212649,.00171644,82.5207,135.0044,137.7734,222.4806,0,U,20511,999,93654,.37397065E-4,.323E-5,0
HST,1990-037B,2026-06-11T05:02:46.985856,15.30680019,.00019704,28.4707,121.4212,81.6673,278.4146,0,U,20580,999,78765,.1569585E-3,.5021E-4,0
SL-16 R/B,1990-046B,2026-06-11T22:17:53.549664,14.15023954,.00137877,70.9991,99.9907,169.6351,190.5058,0,U,20625,999,86172,.16773326E-3,.278E-5,0
COSMOS 2084,1990-055A,2026-06-11T22:46:43.435776,15.06094647,.0005477,62.7911,13.9695,269.6718,90.3755,0,U,20663,999,95051,.13154548E-3,.173E-4,0
SL-6 R/B(2),1990-055D,2026-06-11T17:31:38.888544,15.03985016,.00397646,62.7826,293.9452,4.4036,355.7405,0,U,20666,999,95233,.11433298E-3,.1405E-4,0
SL-8 R/B,1990-078B,2026-06-11T11:53:20.590080,14.92097617,.0352191,82.9014,166.7865,57.6230,305.8559,0,U,20775,999,82327,.54013E-3,.19183E-3,0
SL-8 R/B,1991-006B,2026-06-11T21:45:03.678912,13.77505513,.00234715,82.9424,99.9621,128.6189,293.2262,0,U,21088,999,77704,.13835501E-4,.29E-6,0
OKEAN-3,1991-039A,2026-06-11T16:30:28.002240,15.05299375,.00144788,82.5160,245.7137,18.0260,342.1477,0,U,21397,999,87917,.12696695E-3,.1847E-4,0
COSMOS 2151,1991-042A,2026-06-11T22:11:29.801472,15.00422665,.00138048,82.4960,352.7601,99.7633,260.5151,0,U,21422,999,87732,.10886074E-3,.1398E-4,0
SL-14 R/B,1991-042B,2026-06-11T22:53:19.691232,14.81899194,.00155541,82.4924,131.8034,293.7926,66.1657,0,U,21423,999,86703,.372294E-4,.318E-5,0
ERS-1,1991-050A,2026-06-11T22:50:30.817248,14.39514118,.00307218,98.7797,183.5217,283.1813,76.5947,0,U,21574,999,82929,.97316092E-4,.258E-5,0
ARIANE 40 R/B,1991-050F,2026-06-11T17:01:52.367232,14.42953843,.00040344,98.1876,211.3396,133.1181,227.0347,0,U,21610,999,83255,.81878346E-4,.232E-5,0
INTERCOSMOS 25,1991-086A,2026-06-11T15:56:51.725184,12.12189031,.1484221,82.6056,253.1518,274.3176,69.0307,0,U,21819,999,50807,.88376542E-4,.443E-5,0
SL-8 R/B,1992-008B,2026-06-11T14:38:15.925056,13.75975437,.0033535,82.9264,197.9343,230.7167,242.5457,0,U,21876,999,72233,.11337E-3,.125E-5,0
SL-8 R/B,1992-020B,2026-06-11T21:22:50.140704,13.75548296,.00300357,82.9306,83.7911,36.9808,30.4970,0,U,21938,999,71408,.18739006E-4,.33E-6,0
USA 81,1992-023A,2026-06-11T19:49:31.577952,14.32396782,.00027867,85.0077,77.1016,89.5388,270.6124,0,U,21949,999,10826,.42106126E-4,.134E-5,0
COSMOS 2219,1992-076A,2026-06-11T11:03:39.149856,14.14096146,.0016333,71.0575,182.0431,53.5171,306.7454,0,U,22219,999,73163,.82986E-4,.111E-5,0
SL-16 R/B,1992-076B,2026-06-11T22:57:11.783232,14.16871184,.00145493,71.0004,349.8010,305.4602,164.7552,0,U,22220,999,73518,-.29798824E-4,-.108E-5,0
COSMOS 2221,1992-080A,2026-06-11T17:21:15.260256,14.96519585,.00128691,82.5031,188.9997,232.2831,127.7226,0,U,22236,999,79485,.10294243E-3,.1197E-4,0
SL-16 R/B,1992-093B,2026-06-11T10:44:28.059072,14.15463805,.0004276,71.0199,167.4407,197.4318,162.6659,0,U,22285,999,72642,-.94362E-4,-.232E-5,0
COSMOS 2228,1992-094A,2026-06-11T22:37:41.581632,14.97567486,.00174183,82.5171,147.0660,350.4702,9.6187,0,U,22286,999,79016,.14181981E-3,.1686E-4,0
SL-16 R/B,1993-016B,2026-06-11T22:07:20.247168,14.15310673,.00105774,71.0082,17.2671,190.9011,169.1884,0,U,22566,999,71550,.16294627E-3,.27E-5,0
COSMOS 2242,1993-024A,2026-06-11T11:58:17.851008,14.96886718,.0015927,82.5179,176.9851,355.9076,4.2013,0,U,22626,999,79442,.12406E-3,.1452E-4,0
SL-16 R/B,1993-059B,2026-06-11T11:46:26.659776,14.17246336,.0015064,70.9884,173.3170,63.8399,296.4272,0,U,22803,999,69282,.16294E-3,.281E-5,0
ARIANE 40 R/B,1993-061H,2026-06-11T18:12:40.045248,14.32905578,.00108211,98.4818,229.7285,12.5369,347.6082,0,U,22830,999,70757,.68186099E-4,.143E-5,0
COSMOS 2278,1994-023A,2026-06-11T22:37:30.229536,14.14395726,.00105981,71.0546,337.8981,249.1251,110.8737,0,U,23087,999,65813,.18126421E-3,.3E-5,0
SL-16 R/B,1994-023B,2026-06-11T14:14:25.694016,14.15021446,.0003135,70.9993,233.6789,191.8566,168.2483,0,U,23088,999,65937,.17905E-3,.299E-5,0
SL-16 R/B,1994-074B,2026-06-11T16:17:43.726848,14.79497698,.00050812,97.6993,189.6293,276.8908,196.5962,0,U,23343,999,70114,.54199196E-4,.356E-5,0
