COSMOS 2058             
1 20465U 90010A   26162.90729227  .00003376  00000+0  19495-3 0  9991
2 20465  82.4661 314.5620 0009898  19.3672 340.7932 15.11976340956475
SL-14 R/B               
1 20466U 90010B   26162.50264861  .00000330  00000+0  37053-4 0  9994
2 20466  82.5016 179.2835 0019597 355.3900   4.7131 14.83642626942398
SL-14 R/B               
1 20511U 90018B   26162.94827009  .00000323  00000+0  37397-4 0  9993
2 20511  82.5207 135.0044 0017164 137.7734 222.4806 14.82212649936543
HST                     
1 20580U 90037B   26162.21026604  .00005021  00000+0  15696-3 0  9999
2 20580  28.4707 121.4212 0001970  81.6673 278.4146 15.30680019787654
SL-16 R/B               
1 20625U 90046B   26162.92909201  .00000278  00000+0  16773-3 0  9996
2 20625  70.9991  99.9907 0013787 169.6351 190.5058 14.15023954861728
COSMOS 2084             
1 20663U 90055A   26162.94911384  .00001730  00000+0  13155-3 0  9990
2 20663  62.7911  13.9695 0005477 269.6718  90.3755 15.06094647950511
SL-6 R/B(2)             
1 20666U 90055D   26162.73031121  .00001405  00000+0  11433-3 0  9998
2 20666  62.7826 293.9452 0039764   4.4036 355.7405 15.03985016952332
SL-8 R/B                
1 20775U 90078B   26162.49537720  .00019183  00000+0  54013-3 0  9996
2 20775  82.9014 166.7865 0352191  57.6230 305.8559 14.92097617823273
SL-8 R/B                
1 21088U 91006B   26162.90629258  .00000029  00000+0  13836-4 0  9998
2 21088  82.9424  99.9621 0023471 128.6189 293.2262 13.77505513777046
OKEAN-3                 
1 21397U 91039A   26162.68782410  .00001847  00000+0  12697-3 0  9994
2 21397  82.5160 245.7137 0014478  18.0260 342.1477 15.05299375879172
COSMOS 2151             
1 21422U 91042A   26162.92465048  .00001398  00000+0  10886-3 0  9998
2 21422  82.4960 352.7601 0013804  99.7633 260.5151 15.00422665877327
SL-14 R/B               
1 21423U 91042B   26162.95370013  .00000318  00000+0  37229-4 0  9991
2 21423  82.4924 131.8034 0015554 293.7926  66.1657 14.81899194867030
ERS-1                   
1 21574U 91050A   26162.95174557  .00000258  00000+0  97316-4 0  9998
2 21574  98.7797 183.5217 0030721 283.1813  76.5947 14.39514118829299
ARIANE 40 R/B           
1 21610U 91050F   26162.70963388  .00000232  00000+0  81878-4 0  9998
2 21610  98.1876 211.3396 0004034 133.1181 227.0347 14.42953843832556
INTERCOSMOS 25          
1 21819U 91086A   26162.66448756  .00000443  00000+0  88377-4 0  9995
2 21819  82.6056 253.1518 1484221 274.3176  69.0307 12.12189031508070
SL-8 R/B                
1 21876U 92008B   26162.60990654  .00000125  00000+0  11337-3 0  9994
2 21876  82.9264 197.9343 0033535 230.7167 242.5457 13.75975437722335
SL-8 R/B                
1 21938U 92020B   26162.89085811  .00000033  00000+0  18739-4 0  9990
2 21938  82.9306  83.7911 0030035  36.9808  30.4970 13.75548296714080
USA 81                  
1 21949U 92023A   26162.82605993  .00000134  00000+0  42106-4 0  9994
2 21949  85.0077  77.1016 0002786  89.5388 270.6124 14.32396782108264
COSMOS 2219             
1 22219U 92076A   26162.46086979  .00000111  00000+0  82986-4 0  9995
2 22219  71.0575 182.0431 0016333  53.5171 306.7454 14.14096146731635
SL-16 R/B               
1 22220U 92076B   26162.95638638 -.00000108  00000+0 -29799-4 0  9997
2 22220  71.0004 349.8010 0014549 305.4602 164.7552 14.16871184735185
COSMOS 2221             
1 22236U 92080A   26162.72309329  .00001197  00000+0  10294-3 0  9992
2 22236  82.5031 188.9997 0012869 232.2831 127.7226 14.96519585794857
SL-16 R/B               
1 22285U 92093B   26162.44754698 -.00000232  00000+0 -94362-4 0  9992
2 22285  71.0199 167.4407 0004276 197.4318 162.6659 14.15463805726422
COSMOS 2228             
1 22286U 92094A   26162.94284238  .00001686  00000+0  14182-3 0  9990
2 22286  82.5171 147.0660 0017418 350.4702   9.6187 14.97567486790163
SL-16 R/B               
1 22566U 93016B   26162.92176212  .00000270  00000+0  16295-3 0  9991
2 22566  71.0082  17.2671 0010577 190.9011 169.1884 14.15310673715502
COSMOS 2242             
1 22626U 93024A   26162.49881772  .00001452  00000+0  12406-3 0  9996
2 22626  82.5179 176.9851 0015927 355.9076   4.2013 14.96886718794422
SL-16 R/B               
1 22803U 93059B   26162.49058634  .00000281  00000+0  16294-3 0  9992
2 22803  70.9884 173.3170 0015064  63.8399 296.4272 14.17246336692825
ARIANE 40 R/B           
1 22830U 93061H   26162.75879682  .00000143  00000+0  68186-4 0  9993
2 22830  98.4818 229.7285 0010821  12.5369 347.6082 14.32905578707578
COSMOS 2278             
1 23087U 94023A   26162.94271099  .00000300  00000+0  18126-3 0  9999
2 23087  71.0546 337.8981 0010598 249.1251 110.8737 14.14395726658133
SL-16 R/B               
1 23088U 94023B   26162.59335294  .00000299  00000+0  17905-3 0  9990
2 23088  70.9993 233.6789 0003135 191.8566 168.2483 14.15021446659376
SL-16 R/B               
1 23343U 94074B   26162.67897832  .00000356  00000+0  54199-4 0  9991
2 23343  97.6993 189.6293 0005081 276.8908 196.5962 14.79497698701147
